{
"type": "FeatureCollection",
"name": "resultado",
"crs": { "type": "name", "properties": { "name": "urn:ogc:def:crs:OGC:1.3:CRS84" } },
"features": [
{ "type": "Feature", "properties": { "Name": "", "Description": "" }, "geometry": { "type": "LineString", "coordinates": [ [ -70.272995, -37.381605, 0.0 ], [ -70.272139, -37.3823, 0.0 ], [ -70.271224, -37.38305, 0.0 ], [ -70.270327, -37.383783, 0.0 ], [ -70.26942, -37.384521, 0.0 ], [ -70.268517, -37.385247, 0.0 ], [ -70.267614, -37.385977, 0.0 ], [ -70.266771, -37.386656, 0.0 ], [ -70.266593, -37.386785, 0.0 ], [ -70.266313, -37.386564, 0.0 ], [ -70.266042, -37.386364, 0.0 ], [ -70.265798, -37.38618, 0.0 ], [ -70.265383, -37.385861, 0.0 ], [ -70.265082, -37.385646, 0.0 ], [ -70.264622, -37.385297, 0.0 ], [ -70.264274, -37.385034, 0.0 ], [ -70.263968, -37.384803, 0.0 ], [ -70.263652, -37.384576, 0.0 ], [ -70.263254, -37.384299, 0.0 ], [ -70.263014, -37.384126, 0.0 ], [ -70.262893, -37.383938, 0.0 ], [ -70.262851, -37.383886, 0.0 ], [ -70.262818, -37.383813, 0.0 ], [ -70.262817, -37.383752, 0.0 ], [ -70.262841, -37.383686, 0.0 ], [ -70.262901, -37.383626, 0.0 ], [ -70.263151, -37.38345, 0.0 ], [ -70.263449, -37.383242, 0.0 ], [ -70.263777, -37.383011, 0.0 ], [ -70.264008, -37.382819, 0.0 ], [ -70.264243, -37.382622, 0.0 ], [ -70.264454, -37.382446, 0.0 ], [ -70.264679, -37.382258, 0.0 ], [ -70.26492, -37.382065, 0.0 ], [ -70.265209, -37.381838, 0.0 ], [ -70.265557, -37.381557, 0.0 ], [ -70.265832, -37.381334, 0.0 ], [ -70.266171, -37.381054, 0.0 ], [ -70.266486, -37.380791, 0.0 ], [ -70.266972, -37.380397, 0.0 ], [ -70.267411, -37.380039, 0.0 ], [ -70.267142, -37.379807, 0.0 ], [ -70.266778, -37.379528, 0.0 ], [ -70.266321, -37.379172, 0.0 ], [ -70.265937, -37.378876, 0.0 ], [ -70.265587, -37.378602, 0.0 ], [ -70.265842, -37.378393, 0.0 ], [ -70.266453, -37.377899, 0.0 ], [ -70.266971, -37.377483, 0.0 ], [ -70.267391, -37.377141, 0.0 ], [ -70.266939, -37.376785, 0.0 ], [ -70.266707, -37.376603, 0.0 ], [ -70.266393, -37.376356, 0.0 ], [ -70.266151, -37.376167, 0.0 ], [ -70.265868, -37.375945, 0.0 ], [ -70.26545, -37.375614, 0.0 ], [ -70.264979, -37.375248, 0.0 ], [ -70.264586, -37.374945, 0.0 ], [ -70.264126, -37.374577, 0.0 ], [ -70.263621, -37.374199, 0.0 ], [ -70.263142, -37.373828, 0.0 ], [ -70.262516, -37.373341, 0.0 ], [ -70.261859, -37.372841, 0.0 ], [ -70.261615, -37.372651, 0.0 ], [ -70.261703, -37.372268, 0.0 ], [ -70.261878, -37.371479, 0.0 ], [ -70.261979, -37.371062, 0.0 ], [ -70.262116, -37.370493, 0.0 ], [ -70.262181, -37.370206, 0.0 ] ] } },
{ "type": "Feature", "properties": { "Name": "", "Description": "" }, "geometry": { "type": "LineString", "coordinates": [ [ -70.26218, -37.370206, 0.0 ], [ -70.262007, -37.370086, 0.0 ], [ -70.26138, -37.369675, 0.0 ], [ -70.260821, -37.369356, 0.0 ], [ -70.260832, -37.369186, 0.0 ], [ -70.261261, -37.368806, 0.0 ], [ -70.261665, -37.368427, 0.0 ], [ -70.261965, -37.368136, 0.0 ], [ -70.262408, -37.367686, 0.0 ], [ -70.262911, -37.367179, 0.0 ], [ -70.262244, -37.366752, 0.0 ], [ -70.261579, -37.366327, 0.0 ], [ -70.261886, -37.366009, 0.0 ], [ -70.262117, -37.365759, 0.0 ], [ -70.26234, -37.365521, 0.0 ], [ -70.26244, -37.365412, 0.0 ], [ -70.262479, -37.365343, 0.0 ], [ -70.262491, -37.365292, 0.0 ], [ -70.26209, -37.365275, 0.0 ], [ -70.261795, -37.365264, 0.0 ], [ -70.26182, -37.364676, 0.0 ], [ -70.261839, -37.364242, 0.0 ], [ -70.26186, -37.363892, 0.0 ], [ -70.261874, -37.363647, 0.0 ], [ -70.261898, -37.363239, 0.0 ], [ -70.261916, -37.362905, 0.0 ], [ -70.261945, -37.362417, 0.0 ], [ -70.261976, -37.361908, 0.0 ], [ -70.262005, -37.361415, 0.0 ], [ -70.262047, -37.360706, 0.0 ], [ -70.262074, -37.360256, 0.0 ], [ -70.262097, -37.35992, 0.0 ], [ -70.262122, -37.359445, 0.0 ], [ -70.262146, -37.359023, 0.0 ], [ -70.262172, -37.358659, 0.0 ], [ -70.262204, -37.358282, 0.0 ], [ -70.262226, -37.357934, 0.0 ], [ -70.262236, -37.357771, 0.0 ], [ -70.26187, -37.357718, 0.0 ], [ -70.261569, -37.357645, 0.0 ] ] } },
{ "type": "Feature", "properties": { "Name": "", "Description": "" }, "geometry": { "type": "LineString", "coordinates": [ [ -70.26158, -37.357635, 0.0 ], [ -70.262036, -37.356835, 0.0 ], [ -70.262388, -37.356176, 0.0 ], [ -70.262737, -37.35554, 0.0 ], [ -70.263057, -37.355026, 0.0 ], [ -70.263289, -37.354735, 0.0 ], [ -70.263626, -37.35444, 0.0 ], [ -70.263847, -37.354281, 0.0 ], [ -70.264277, -37.354018, 0.0 ], [ -70.264988, -37.35364, 0.0 ], [ -70.265198, -37.353505, 0.0 ], [ -70.265737, -37.353088, 0.0 ], [ -70.265872, -37.352958, 0.0 ], [ -70.265897, -37.352878, 0.0 ], [ -70.265907, -37.352738, 0.0 ], [ -70.26586, -37.352563, 0.0 ], [ -70.26577, -37.352482, 0.0 ], [ -70.265685, -37.352431, 0.0 ], [ -70.265639, -37.352357, 0.0 ], [ -70.265633, -37.352278, 0.0 ], [ -70.265694, -37.351988, 0.0 ], [ -70.265722, -37.351868, 0.0 ], [ -70.265736, -37.351502, 0.0 ], [ -70.265734, -37.35069, 0.0 ], [ -70.26557, -37.350597, 0.0 ], [ -70.265387, -37.350532, 0.0 ], [ -70.265251, -37.350497, 0.0 ], [ -70.26506, -37.350418, 0.0 ], [ -70.264847, -37.350228, 0.0 ], [ -70.264734, -37.350129, 0.0 ], [ -70.264621, -37.349995, 0.0 ], [ -70.264516, -37.349853, 0.0 ], [ -70.264377, -37.349726, 0.0 ], [ -70.264203, -37.349595, 0.0 ], [ -70.26398, -37.349431, 0.0 ], [ -70.263845, -37.349338, 0.0 ] ] } },
{ "type": "Feature", "properties": { "Name": "", "Description": "" }, "geometry": { "type": "LineString", "coordinates": [ [ -70.263845, -37.349338, 0.0 ], [ -70.263835, -37.349912, 0.0 ], [ -70.26384, -37.350396, 0.0 ], [ -70.263859, -37.350953, 0.0 ], [ -70.263843, -37.351536, 0.0 ], [ -70.263866, -37.351633, 0.0 ], [ -70.263897, -37.351696, 0.0 ], [ -70.263976, -37.351765, 0.0 ], [ -70.264083, -37.351828, 0.0 ], [ -70.264079, -37.351821, 0.0 ], [ -70.264614, -37.35203, 0.0 ], [ -70.265078, -37.352222, 0.0 ], [ -70.265423, -37.352325, 0.0 ], [ -70.265609, -37.352334, 0.0 ], [ -70.265693, -37.352413, 0.0 ], [ -70.265886, -37.352559, 0.0 ], [ -70.26601, -37.352618, 0.0 ], [ -70.266093, -37.352643, 0.0 ], [ -70.266193, -37.352659, 0.0 ], [ -70.266275, -37.352697, 0.0 ], [ -70.266447, -37.352673, 0.0 ], [ -70.266617, -37.352691, 0.0 ], [ -70.266759, -37.352763, 0.0 ], [ -70.266837, -37.352861, 0.0 ], [ -70.266837, -37.352858, 0.0 ], [ -70.266875, -37.352971, 0.0 ], [ -70.266871, -37.353152, 0.0 ], [ -70.266903, -37.353314, 0.0 ], [ -70.266969, -37.353407, 0.0 ], [ -70.267103, -37.353523, 0.0 ], [ -70.267285, -37.353656, 0.0 ], [ -70.2676, -37.353805, 0.0 ], [ -70.268024, -37.35401, 0.0 ], [ -70.268352, -37.354142, 0.0 ], [ -70.268869, -37.354339, 0.0 ], [ -70.269396, -37.354463, 0.0 ], [ -70.2700135, -37.3545853, 0.0 ], [ -70.2706524, -37.3546565, 0.0 ], [ -70.2705728, -37.3549153, 0.0 ], [ -70.269667, -37.354961, 0.0 ], [ -70.268827, -37.355023, 0.0 ], [ -70.268093, -37.355053, 0.0 ], [ -70.267358, -37.355087, 0.0 ], [ -70.26673, -37.355113, 0.0 ], [ -70.266778, -37.35567, 0.0 ], [ -70.26803, -37.355619, 0.0 ], [ -70.268873, -37.355584, 0.0 ], [ -70.268914, -37.356063, 0.0 ], [ -70.268952, -37.356699, 0.0 ], [ -70.268997, -37.357209, 0.0 ], [ -70.269028, -37.357777, 0.0 ], [ -70.269073, -37.358404, 0.0 ], [ -70.26913, -37.359227, 0.0 ], [ -70.270687, -37.359141, 0.0 ], [ -70.270754, -37.359514, 0.0 ], [ -70.270719, -37.359778, 0.0 ], [ -70.270808, -37.360386, 0.0 ], [ -70.270886, -37.360846, 0.0 ], [ -70.271048, -37.361576, 0.0 ], [ -70.271134, -37.361969, 0.0 ], [ -70.271265, -37.362478, 0.0 ], [ -70.271371, -37.362891, 0.0 ], [ -70.271513, -37.363323, 0.0 ], [ -70.271625, -37.363662, 0.0 ], [ -70.271659, -37.363918, 0.0 ], [ -70.271672, -37.364084, 0.0 ], [ -70.271709, -37.364281, 0.0 ], [ -70.271825, -37.36473, 0.0 ], [ -70.27187, -37.365039, 0.0 ], [ -70.271878, -37.365237, 0.0 ], [ -70.271851, -37.365376, 0.0 ], [ -70.271812, -37.365514, 0.0 ], [ -70.271708, -37.365703, 0.0 ], [ -70.271687, -37.365822, 0.0 ], [ -70.271695, -37.366067, 0.0 ], [ -70.271688, -37.366485, 0.0 ], [ -70.271669, -37.367144, 0.0 ], [ -70.271633, -37.367318, 0.0 ], [ -70.271524, -37.367559, 0.0 ], [ -70.271399, -37.367763, 0.0 ], [ -70.27111, -37.368126, 0.0 ], [ -70.270275, -37.369234, 0.0 ] ] } },
{ "type": "Feature", "properties": { "Name": "", "Description": "" }, "geometry": { "type": "LineString", "coordinates": [ [ -70.270275, -37.369234, 0.0 ], [ -70.271329, -37.370067, 0.0 ], [ -70.271555, -37.370251, 0.0 ], [ -70.271705, -37.370337, 0.0 ], [ -70.271825, -37.3704, 0.0 ], [ -70.272396, -37.370862, 0.0 ], [ -70.272915, -37.371267, 0.0 ], [ -70.273559, -37.37178, 0.0 ], [ -70.274165, -37.372263, 0.0 ], [ -70.27495, -37.37287, 0.0 ], [ -70.275619, -37.373378, 0.0 ], [ -70.276567, -37.374106, 0.0 ], [ -70.275585, -37.374896, 0.0 ], [ -70.274696, -37.375624, 0.0 ], [ -70.273733, -37.376404, 0.0 ], [ -70.272472, -37.377427, 0.0 ], [ -70.271077, -37.378561, 0.0 ], [ -70.272011, -37.379285, 0.0 ], [ -70.27295, -37.380037, 0.0 ], [ -70.273957, -37.380837, 0.0 ], [ -70.272972, -37.38162, 0.0 ] ] } }
]
}
